[{"OBJECT_NAME":"STARLINK-30975","OBJECT_ID":"2023-183K","EPOCH":"2026-03-09T06:26:49.966368","MEAN_MOTION":15.26744851,"ECCENTRICITY":0.00016427,"INCLINATION":43.0011,"RA_OF_ASC_NODE":43.6658,"ARG_OF_PERICENTER":270.5537,"MEAN_ANOMALY":89.5126,"EPHEMERIS_TYPE":0,"CLASSIFICATION_TYPE":"U","NORAD_CAT_ID":58446,"ELEMENT_SET_NO":999,"REV_AT_EPOCH":12669,"BSTAR":2.3887429e-5,"MEAN_MOTION_DOT":3.81e-6,"MEAN_MOTION_DDOT":0},{"OBJECT_NAME":"KUIPER-00204","OBJECT_ID":"2025-301N","EPOCH":"2026-03-09T09:32:32.981280","MEAN_MOTION":15.260884,"ECCENTRICITY":0.00030716,"INCLINATION":51.887,"RA_OF_ASC_NODE":71.6415,"ARG_OF_PERICENTER":354.8934,"MEAN_ANOMALY":5.2016,"EPHEMERIS_TYPE":0,"CLASSIFICATION_TYPE":"U","NORAD_CAT_ID":67145,"ELEMENT_SET_NO":999,"REV_AT_EPOCH":1373,"BSTAR":0.00079568218,"MEAN_MOTION_DOT":0.00020516,"MEAN_MOTION_DDOT":0}]
